GPS BIIR-2  (PRN 13)    
1 24876U 97035A   23009.27586731  .00000029  00000+0  00000+0 0  9993
2 24876  55.5429 147.6411 0065664  53.1025 307.4574  2.00563950186786
GPS BIIR-4  (PRN 20)    
1 26360U 00025A   23009.28844991 -.00000046  00000+0  00000+0 0  9992
2 26360  54.2290  70.3782 0046443 193.2202 266.5934  2.00557925166102
GPS BIIR-6  (PRN 22)    
1 26605U 00071A   23009.47946049  .00000028  00000+0  00000+0 0  9992
2 26605  55.1306 144.5383 0139681 254.8863 105.1286  2.00552075162359
GPS BIIR-8  (PRN 16)    
1 27663U 03005A   23009.68912833  .00000012  00000+0  00000+0 0  9997
2 27663  55.3788 264.8668 0131139  42.3743 321.4883  2.00552552146155
GPS BIIR-9  (PRN 21)    
1 27704U 03010A   23009.62191182 -.00000078  00000+0  00000+0 0  9992
2 27704  55.0840  14.9676 0249203 311.5913 221.6964  2.00565067144943
GPS BIIR-11 (PRN 19)    
1 28190U 04009A   23009.71868569 -.00000069  00000+0  00000+0 0  9991
2 28190  55.8702 325.8923 0088373 128.4788  52.5990  2.00572811137780
GPS BIIR-13 (PRN 02)    
1 28474U 04045A   23009.41123847 -.00000078  00000+0  00000+0 0  9996
2 28474  55.4090  15.1955 0202944 282.9416 248.1370  2.00562094133267
CRE (WAAS/PRN 138)      
1 28868U 05036A   23010.17614434 -.00000060  00000+0  00000+0 0  9997
2 28868   1.0843  91.7654 0000872 217.2575 116.5208  1.00271261 63583
GPS BIIRM-1 (PRN 17)    
1 28874U 05038A   23009.00314995 -.00000070  00000+0  00000+0 0  9996
2 28874  55.9289 323.3625 0140242 277.6708 135.9393  2.00561801126660
IOR-W (EGNOS/PRN 126)   
1 28899U 05044A   23009.86009910  .00000023  00000+0  00000+0 0  9999
2 28899   3.6651  39.1606 0003274 257.8482 185.6295  1.00272099 62921
GPS BIIRM-2 (PRN 31)    
1 29486U 06042A   23009.55949137  .00000069  00000+0  00000+0 0  9991
2 29486  54.6975 201.0850 0106813  27.0227 343.9148  2.00567344119231
GPS BIIRM-3 (PRN 12)    
1 29601U 06052A   23008.99690439  .00000016  00000+0  00000+0 0  9998
2 29601  55.3924 263.8412 0085987  75.5644 285.4699  2.00562720118234
GPS BIIRM-4 (PRN 15)    
1 32260U 07047A   23009.29852807  .00000009  00000+0  00000+0 0  9993
2 32260  53.3771 132.0103 0145451  66.8798 294.6162  2.00564533111646
COSMOS 2433 (720)       
1 32275U 07052A   23010.22584929 -.00000051  00000+0  00000+0 0  9995
2 32275  66.0668 357.8081 0005189 260.9504 228.8278  2.13104082118372
COSMOS 2432 (719)       
1 32276U 07052B   23009.31923659 -.00000056  00000+0  00000+0 0  9996
2 32276  66.0801 357.9428 0011657 316.3182 145.6561  2.13103333118350
GPS BIIRM-5 (PRN 29)    
1 32384U 07062A   23009.61760528 -.00000067  00000+0  00000+0 0  9996
2 32384  56.0538 324.1268 0019716 144.5183 213.9596  2.00572958110347
COSMOS 2434 (721)       
1 32393U 07065A   23009.96309716  .00000064  00000+0  00000+0 0  9991
2 32393  64.3548 234.3842 0004299  72.0151 106.4680  2.13103136117079
COSMOS 2436 (723)       
1 32395U 07065C   23009.49212328  .00000065  00000+0  00000+0 0  9994
2 32395  64.3641 234.4597 0016854   6.3104 306.5435  2.13102855116999
GPS BIIRM-6 (PRN 07)    
1 32711U 08012A   23009.21383402  .00000067  00000+0  00000+0 0  9993
2 32711  54.4612 199.9870 0167614 232.6143 125.8694  2.00571549108587
GPS BIIRM-8 (PRN 05)    
1 35752U 09043A   23009.34324708 -.00000039  00000+0  00000+0 0  9994
2 35752  55.2343  77.2506 0055849  64.2229  42.0614  2.00573277 98196
COSMOS 2456 (730)       
1 36111U 09070A   23009.47708528  .00000007  00000+0  00000+0 0  9998
2 36111  64.4112 113.9777 0002379 305.7925  22.5057  2.13099038101726
COSMOS 2457 (733)       
1 36112U 09070B   23010.33418728  .00000013  00000+0  00000+0 0  9993
2 36112  64.3954 113.8192 0006154 160.1588 234.6020  2.13101232101752
BEIDOU 3 (C01)          
1 36287U 10001A   23010.60614252 -.00000266  00000+0  00000+0 0  9993
2 36287   1.8786  51.9516 0002494 256.9659 159.5629  1.00274268 47598
COSMOS 2461 (735)       
1 36401U 10007B   23010.47116517 -.00000050  00000+0  00000+0 0  9994
2 36401  65.9493 356.6072 0019376 359.7647 175.2090  2.13102980100100
COSMOS 2460 (732)       
1 36402U 10007C   23009.51929098 -.00000055  00000+0  00000+0 0  9999
2 36402  65.9352 356.5865 0002559 283.3652 191.9162  2.13106291100088
GPS BIIF-1  (PRN 25)    
1 36585U 10022A   23009.80696549  .00000020  00000+0  00000+0 0  9993
2 36585  54.6819 259.1850 0108893  57.5472 145.7641  2.00576257 92431
BEIDOU 5 (C06)          
1 36828U 10036A   23009.30153800 -.00000079  00000+0  00000+0 0  9996
2 36828  54.2027 174.3474 0034728 182.5130 326.7985  1.00291990 45643
COSMOS 2464 (736)       
1 37139U 10041C   23010.14449122  .00000065  00000+0  00000+0 0  9991
2 37139  63.9545 233.3514 0030872  12.1884 162.2595  2.13101419 96155
QZS-1 (QZSS/PRN 183)    
1 37158U 10045A   23009.64715420 -.00000165  00000+0  00000+0 0  9998
2 37158  42.5578 130.5501 0759007 270.5084  76.7650  1.00255073 45155
BEIDOU 6 (C04)          
1 37210U 10057A   23010.28148442 -.00000098  00000+0  00000+0 0  9991
2 37210   0.9215  51.1283 0006128 175.8874 143.8694  1.00273381 44715
BEIDOU 7 (C07)          
1 37256U 10068A   23009.71049219 -.00000173  00000+0  00000+0 0  9995
2 37256  49.8401 287.1699 0025110 206.8229 335.1570  1.00302945 44210
BEIDOU 8 (C08)          
1 37384U 11013A   23010.58759216 -.00000156  00000+0  00000+0 0  9991
2 37384  60.5891  52.2179 0023650 189.6846 184.2179  1.00253593 43108
GSAT-8 (GAGAN/PRN 127)  
1 37605U 11022A   23010.24007799  .00000099  00000+0  00000+0 0  9997
2 37605   0.0280  98.9908 0008553 172.7792 339.2329  1.00272452 42664
GPS BIIF-2  (PRN 01)    
1 37753U 11036A   23009.66167979 -.00000072  00000+0  00000+0 0  9999
2 37753  56.6850  20.6858 0119933  52.9435 125.2051  2.00566734 84113
BEIDOU 9 (C09)          
1 37763U 11038A   23009.92406443  .00000019  00000+0  00000+0 0  9993
2 37763  54.4794 176.8475 0101998 227.2043 132.9420  1.00280453 42074
GSAT0101 (PRN E11)      
1 37846U 11060A   23009.14356066 -.00000070  00000+0  00000+0 0  9997
2 37846  57.0615  15.7503 0002907 328.0212  31.9881  1.70476188 69727
GSAT0102 (PRN E12)      
1 37847U 11060B   23009.06962299 -.00000070  00000+0  00000+0 0  9990
2 37847  57.0615  15.7519 0004737 312.0121  49.4366  1.70475499 69737
COSMOS 2476 (744)       
1 37867U 11064A   23009.60100485  .00000010  00000+0  00000+0 0  9990
2 37867  64.6967 115.4095 0021940 232.5692  98.0623  2.13101714 87071
COSMOS 2477 (745)       
1 37868U 11064B   23009.81286826  .00000011  00000+0  00000+0 0  9999
2 37868  64.7039 115.4692 0019091 232.8024  78.3690  2.13101511 87038
COSMOS 2475 (743)       
1 37869U 11064C   23009.46424501  .00000009  00000+0  00000+0 0  9992
2 37869  64.7110 115.4911 0023344 251.6083 110.3330  2.13101755 87042
BEIDOU 10 (C10)         
1 37948U 11073A   23009.18146404 -.00000133  00000+0  00000+0 0  9991
2 37948  49.9657 286.8338 0086449 221.1407 120.9322  1.00287431 40817
LUCH 5A (SDCM/PRN 140)  
1 37951U 11074B   23009.93835949 -.00000036  00000+0  00000+0 0  9990
2 37951   5.5389  93.8393 0002412 177.2197 342.9250  1.00274449 40612
BEIDOU 11 (C05)         
1 38091U 12008A   23010.13195289  .00000070  00000+0  00000+0 0  9991
2 38091   2.0375  71.3925 0011067 306.4738 197.8057  1.00268935 39905
BEIDOU 12 (C11)         
1 38250U 12018A   23009.44508058 -.00000085  00000+0  00000+0 0  9990
2 38250  56.6247 346.7503 0024948 259.3914 179.6533  1.86234306 72925
BEIDOU 13 (C12)         
1 38251U 12018B   23009.37083699 -.00000085  00000+0  00000+0 0  9992
2 38251  56.5389 346.0628 0015898 262.6307 170.7345  1.86234099 72922
SES-5 (EGNOS/PRN 136)   
1 38652U 12036A   23010.26470515  .00000048  00000+0  00000+0 0  9992
2 38652   0.0590 292.4941 0002040 353.5586 283.7374  1.00271612 38490
BEIDOU 15 (C14)         
1 38775U 12050B   23010.12321417 -.00000011  00000+0  00000+0 0  9996
2 38775  55.5286 104.7337 0011611 325.3788  87.8154  1.86231141 70315
GSAT-10 (GAGAN/PRN 128) 
1 38779U 12051B   23010.13674698 -.00000151  00000+0  00000+0 0  9999
2 38779   0.0349 259.3015 0004756  11.9415 330.3864  1.00271921 37718
GPS BIIF-3  (PRN 24)    
1 38833U 12053A   23008.90031066  .00000062  00000+0  00000+0 0  9990
2 38833  53.5189 194.9408 0134782  49.6479 311.5336  2.00564162 74264
GSAT0103 (PRN E19)      
1 38857U 12055A   23008.59573703  .00000011  00000+0  00000+0 0  9996
2 38857  55.2020 136.0579 0002876 236.5660 123.3588  1.70473735 63601
GSAT0104 (PRN E20)      
1 38858U 12055B   23007.39235378  .00000005  00000+0  00000+0 0  9990
2 38858  55.2015 136.0925 0001517 180.7454 179.2007  1.70473875 63581
BEIDOU 16 (C02)         
1 38953U 12059A   23009.86299285 -.00000161  00000+0  00000+0 0  9995
2 38953   1.4356  82.2957 0009808 289.6556 131.8016  1.00268456 37336
LUCH 5B (SDCM/PRN 125)  
1 38977U 12061A   23007.46292188 -.00000129  00000+0  00000+0 0  9997
2 38977   7.7339  61.0676 0002256 148.2538  47.7381  1.00270736 37575
COSMOS 2485 (747)       
1 39155U 13019A   23009.59344214  .00000010  00000+0  00000+0 0  9992
2 39155  64.8586 115.8828 0022284 228.1251 141.0982  2.13101761 75553
GPS BIIF-4  (PRN 27)    
1 39166U 13023A   23009.25741924 -.00000066  00000+0  00000+0 0  9993
2 39166  55.5491 319.6447 0109631  38.4966 322.2839  2.00565248 70712
IRNSS-1A                
1 39199U 13034A   23008.76843302  .00000074  00000+0  00000+0 0  9997
2 39199  32.8874  82.2697 0020917 187.0860 170.3204  1.00271115 34774
GPS BIIF-5  (PRN 30)    
1 39533U 14008A   23008.76171086  .00000064  00000+0  00000+0 0  9993
2 39533  53.6093 200.4755 0061239 209.1547 150.5264  2.00565108 64519
ASTRA 5B (EGNOS/PRN 123)
1 39617U 14011B   23010.12827161  .00000169  00000+0  00000+0 0  9991
2 39617   0.0358 350.1104 0004083 302.4793 254.4532  1.00270835 32298
COSMOS 2492 (754)       
1 39620U 14012A   23008.27259786 -.00000062  00000+0  00000+0 0  9994
2 39620  65.8199 356.2815 0014746 314.8217 155.4104  2.13103170 68471
IRNSS-1B                
1 39635U 14017A   23009.78382743  .00000132  00000+0  00000+0 0  9999
2 39635  29.1733 261.6555 0018360 183.5488   1.1900  1.00276496 32201
